{
    "links": {
        "self": "http://www.neowsapp.com/rest/v1/neo/3986744?api_key=iIulBulltgU6a56xZRHN4H3l9WmuAYTsLGpBGhQ2"
    },
    "id": "3986744",
    "neo_reference_id": "3986744",
    "name": "(2020 BC1)",
    "designation": "2020 BC1",
    "nasa_jpl_url": "http://ssd.jpl.nasa.gov/sbdb.cgi?sstr=3986744",
    "absolute_magnitude_h": 25.98,
    "estimated_diameter": {
        "kilometers": {
            "estimated_diameter_min": 0.0169260249,
            "estimated_diameter_max": 0.0378477424
        },
        "meters": {
            "estimated_diameter_min": 16.9260249457,
            "estimated_diameter_max": 37.8477423675
        },
        "miles": {
            "estimated_diameter_min": 0.010517341,
            "estimated_diameter_max": 0.0235174895
        },
        "feet": {
            "estimated_diameter_min": 55.531579683,
            "estimated_diameter_max": 124.172387069
        }
    },
    "is_potentially_hazardous_asteroid": false,
    "close_approach_data": [
        {
            "close_approach_date": "2020-01-14",
            "close_approach_date_full": "2020-Jan-14 15:41",
            "epoch_date_close_approach": 1579016460000,
            "relative_velocity": {
                "kilometers_per_second": "8.9227983715",
                "kilometers_per_hour": "32122.074137385",
                "miles_per_hour": "19959.407677199"
            },
            "miss_distance": {
                "astronomical": "0.0520687216",
                "lunar": "20.2547327024",
                "kilometers": "7789369.844982992",
                "miles": "4840089.9837176096"
            },
            "orbiting_body": "Earth"
        }
    ],
    "orbital_data": {
        "orbit_id": "3",
        "orbit_determination_date": "2020-02-04 05:38:19",
        "first_observation_date": "2020-01-18",
        "last_observation_date": "2020-02-03",
        "data_arc_in_days": 16,
        "observations_used": 33,
        "orbit_uncertainty": "8",
        "minimum_orbit_intersection": ".0411033",
        "jupiter_tisserand_invariant": "3.826",
        "epoch_osculation": "2458867.5",
        "eccentricity": ".4821107393021012",
        "semi_major_axis": "1.871938664577361",
        "inclination": "5.364144522059927",
        "ascending_node_longitude": "310.3557233618624",
        "orbital_period": "935.4828904519078",
        "perihelion_distance": ".9694569310697817",
        "perihelion_argument": "130.9771838117188",
        "aphelion_distance": "2.774420398084941",
        "perihelion_time": "2458838.031874199022",
        "mean_anomaly": "11.34015960807939",
        "mean_motion": ".384827989559588",
        "equinox": "J2000",
        "orbit_class": {
            "orbit_class_type": "APO",
            "orbit_class_description": "Near-Earth asteroid orbits which cross the Earth’s orbit similar to that of 1862 Apollo",
            "orbit_class_range": "a (semi-major axis) > 1.0 AU; q (perihelion) < 1.017 AU"
        }
    },
    "is_sentry_object": false
}